STARLINK-2195           
1 47772U 21017BC  26068.64639940  .00001979  00000+0  78929-4 0  9995
2 47772  53.1613 217.4753 0001569  60.3048 299.8109 15.30196200277651
HYPERFIELD-1A           
1 60562U 24149CY  26068.76488211  .00008569  00000+0  30052-3 0  9998
2 60562  97.3842 149.5066 0003865 313.7844  46.3076 15.29681349 86836
